#dP2021  8 12  0  0  0.00000000      96 __u+U ITR00 FIT  IAC
## 2170 345600.00000000   900.00000000 59438 0.0000000000000
+  116   C06C07C08C09C10C11C12C13C14C16C19C20C21C22C23C24C25
+        C26C27C28C29C30C32C33C34C35C36C37C38C39C40C41C42C43
+        C44C45C46E01E02E03E04E05E07E08E09E11E12E13E14E15E18
+        E19E21E24E25E26E27E30E31E33E36G01G02G03G04G05G06G07
+        G08G09G10G12G13G14G15G16G17G18G19G20G21G22G23G24G25
+        G26G27G28G29G30G31G32J01J02J03R01R02R03R04R05R07R08
+        R09R11R12R13R14R15R16R17R18R19R20R21R22R24  0  0  0
++         8  8  8  8  7  7  7  6  0  8  7  6  8  6  8  8  6
++         6  7  8  8  7  8  6  8  7  5  7  8  9  8  7  8  8
++         7  6  7  8  7  7  6  6  8  7  6  6  6  6  6  7  8
++         6  7  7  5  8  7  6  7  7  6  5  5  6  6  6  6  6
++         7  9  5  5  6  6  5  7  7  5  6  6  6  6  6  6  6
++         7  6  6  7  6  7  6 10  7  7  7  6  6  8  6  8  6
++         8  6  6  7  6  6  7  6  6  6  7  8  7  6  0  0  0
%c M  cc GPS ccc cccc cccc cccc cccc ccccc ccccc ccccc ccccc
%c cc cc ccc ccc cccc cccc cccc cccc ccccc ccccc ccccc ccccc
%f  0.0000000  0.000000000  0.00000000000  0.000000000000000
%f  0.0000000  0.000000000  0.00000000000  0.000000000000000
%i    0    0    0    0      0      0      0      0         0
%i    0    0    0    0      0      0      0      0         0
/* INFORMATION & ANALYSIS CENTER (IAC)      ULTRA-RAPID DATA
/* S/V CLOCKS ARE ALIGNED TO GNSS TIME                      
/* G:C1WC2W R:C1PC2P E:C1XC5X C:C2IC6I J:C1CC2S             
/* PCV:IGS14_2163 OL/AL:FES2004  NONE     YN ORB:CoN CLK:CoN
*  2021 08 12 17 15  0.00000000
PC06 -17891.389881  33266.093428  18544.591695    748.751949
PC07  -9103.634396  34691.313461  22877.545048     18.027795
PC08 -14185.547402  17310.582650 -35663.243659   -919.945981
PC09  -9525.863777  31596.832523  26307.926460    -21.746842
PC10   1303.209113  40409.767217  13039.903174     -9.318506
PC11  23334.861708  -5659.207055 -14121.875534    512.822502
PC12  12285.138646   9728.951182 -23058.453215    784.311609
PC13   2101.576889  23561.260115 -34782.029916    371.034792
PC14      0.000000      0.000000      0.000000 999999.999999
PC16 -20338.068841  33150.976624  16155.981619   -864.705114
PC19 -14145.266570   9270.515001 -22179.642845    944.333543
PC20 -15628.559931 -11218.105442 -20192.744526   -821.453118
PC21   7776.765756  26142.712414   5977.993101   -940.470478
PC22  -4466.647554  25103.885547 -11378.620085   -950.481766
PC23   6735.389109 -14800.658251 -22664.040328   -962.156536
PC24  25456.149063  11363.848703    975.928484   -964.272073
PC25  22541.928086  -3574.237149 -16044.238878   -871.393512
PC26  14381.012795  17805.460007  15939.541057    865.397468
PC27  -3628.130159 -16455.670641  22223.718683    579.772912
PC28  14436.239201 -20856.652713  11620.702009    -39.357843
PC29 -23491.019231  13906.207123   5790.715521    432.389341
PC30 -19274.576768  -2233.448761  20041.970468    477.209095
PC32  -7934.171071 -26084.124524  -5909.028270   -930.732014
PC33  14172.239123  -9211.614829  22202.269020   -956.159446
PC34  19787.570907   1576.013307 -19633.898633   -606.631600
PC35 -13980.748791  21343.489924 -11279.019509   -142.927082
PC36 -22853.410145   2769.362682  15805.744235   -742.711853
PC37 -13119.372088 -18231.545734 -16545.291655   -861.646487
PC38 -12144.437664  20740.911112 -34648.626124    168.115850
PC39 -22911.238660  33726.595455  10398.496995     32.717076
PC40  -2834.720437  39138.953718  15675.051372    189.632552
PC41   4668.501674 -24916.720422  11712.717464   -962.162342
PC42  15568.068234  12096.632278  19796.400735   -931.964827
PC43  23674.736086 -13376.546536  -6321.511657   -864.683127
PC44   4113.235880  16526.668229 -22113.606621    337.479074
PC45  -6506.457145  14781.653628  22770.397320    518.748050
PC46 -25819.098510 -10636.554661    125.093560 999999.999999
PE01  -7105.107307 -24486.249453 -15027.827716  -1170.185307
PE02   7208.377974  24515.012864  14938.455559    239.430053
PE03  -2967.637993  27850.614664   9603.165857   -462.939384
PE04 -11007.282342 -15929.108158 -22382.247573   -833.520960
PE05 -15428.141779  23595.832284  -9028.999062   -257.798442
PE07  18759.113374  -5631.656119  22195.801410   -572.949530
PE08  11168.072322  15513.028452  22606.876499   5955.218398
PE09 -18633.874561   6006.555296 -22202.586013   5568.476042
PE11 -29251.440512   3296.403129   3056.656085   5587.536234
PE12 -19660.037656  -9636.230771  19908.014195   5063.853483
PE13  29224.952563  -3081.077657  -3543.643401    420.189720
PE14 -16987.824277   -546.761854  17531.925871  -1533.108388
PE15  19698.666170   9504.719244 -19944.229555    798.335189
PE18  17965.078884   9592.461362 -24517.838358  -1681.334287
PE19   4753.774727 -28226.251866  -7532.845399    350.493792
PE21   9551.787719 -14097.839996 -24203.835395   -681.600589
PE24 -21758.846934  -5889.883310  19189.126139  -1059.064983
PE25  -9736.755124  13924.905761  24250.571528   -543.031126
PE26  20815.647985 -14164.839258  15552.869473   1469.615145
PE27  21468.096288   4879.365467 -19773.241328    -96.398417
PE30  20141.717102  21515.621977  -2701.062969   2707.544887
PE31 -20688.344622 -20830.627953   3781.246769   -484.333204
PE33   1400.498601 -16460.775597  24558.862499   -466.372848
PE36 -21522.119540  13820.759159 -14901.657980   -247.445109
PG01  12045.398606  13368.192423 -19924.088127    599.693709
PG02  13242.895377 -14121.224306  18869.148245   -625.873799
PG03  11793.014991  23759.553025  -2352.675172   -251.807417
PG04   4495.662449  17923.736724  19061.631393   -203.813297
PG05  -3428.517674 -22726.477448  12999.628390    -50.905209
PG06  23453.314260  -6894.989775  10510.641484     54.903386
PG07  24066.993305   7171.066141   9746.307090    223.487824
PG08  -3919.853781  23447.645990 -11529.307762    -32.383171
PG09  13506.293715   7265.037399  21622.295596   -358.602925
PG10 -17097.298250  -1933.544550 -20192.532407   -181.100845
PG12  -9874.105462 -24616.438900  -2672.534089    -81.937429
PG13  12261.141842 -22712.209238  -6068.723399    170.407017
PG14  17038.556466   1692.030241 -20319.118611     25.378668
PG15    543.089431 -23741.889199 -11909.849149   -128.870720
PG16  -3555.950198  19778.833007  16879.790517   -372.585778
PG17  18498.590100  -6947.527005 -17321.954326    488.311986
PG18 -25023.992635  -5488.971875   7159.967835    333.385829
PG19  19599.101156 -14015.868890 -11279.797421     38.718827
PG20   5839.488839 -16348.590983  20134.625747    519.688221
PG21   3811.565912  14648.809171 -21163.744589    136.821417
PG22   8321.274457  23441.683041  -9416.670911   -539.990673
PG23 -18887.197065 -12953.708942 -13529.720874     71.748220
PG24  -7423.082345 -14991.157689 -20952.575481    206.176266
PG25 -16855.440816 -19407.853448   6951.222381    189.960041
PG26 -11584.042224  10703.878064  21290.840394    121.823508
PG27 -11769.714222  23487.766169  -2330.757707   -177.268735
PG28  14032.598868  -4632.429698 -21516.801771    521.100382
PG29 -10983.109868  -9892.700390  22014.872370   -395.143996
PG30  26569.797014   -997.469859  -2258.159745   -461.446164
PG31 -22705.167601   7745.715458  11799.973101   -133.895243
PG32 -18588.011332  10407.046054 -15637.391847      8.182029
PJ01 -20862.737855  31039.519162 -14932.908030   -437.952479
PJ02 -26173.636570  21022.490423  30472.372227     -1.503941
PJ03 -35033.674596  23174.867650    311.058399     -0.762943
PR01  -1630.202845 -24983.155438  -4848.059566     83.735787
PR02  -9196.237989 -11436.105943 -20841.222113    489.427330
PR03 -10714.378569   7884.022518 -21712.754946     41.122892
PR04  -6056.611527  22472.556117 -10405.861273     99.864156
PR05   1796.101344  24535.074028   6710.396125     77.020667
PR07  10673.580960  -8663.203080  21532.421901    -41.694594
PR08   6101.219091 -22500.368435  10431.355939    -60.348220
PR09  22034.467636  12832.356925  -1572.141691      7.728117
PR11   5058.210379  -9676.330497 -23036.693532     46.281083
PR12 -12249.447567 -16413.839537 -15182.507805    253.081026
PR13 -21829.191261 -13168.348149    784.017749    -59.080479
PR14 -18612.203904  -1895.416829  17347.989136     67.570464
PR15  -4671.320704  10082.510964  22987.225382    102.119556
PR16  13399.331100  16242.787025  14290.025504    -19.464396
PR17 -23258.382805   9223.890269   5089.496423    449.206460
PR18 -17373.728388  14546.828777 -11661.544472     86.696561
PR19  -3573.337639  12455.752202 -21979.914970   -155.151548
PR20  15787.118055   2368.677464 -19905.699043    -54.032251
PR21  23235.670871  -9761.710867  -3822.280706   -231.008492
PR22  16855.606535 -14543.278575  12512.361881   -127.516921
PR24 -16523.116816  -2002.906326  19348.436327     54.229627
EOF
